CCSDS_OMM_VERS = 2.0
CREATION_DATE  = 
ORIGINATOR     = 

OBJECT_NAME    = STARLINK-35437
OBJECT_ID      = 2025-268G
CENTER_NAME    = EARTH
REF_FRAME      = TEME
TIME_SYSTEM    = UTC
MEAN_ELEMENT_THEORY = SGP/SGP4

EPOCH          = 2025-11-27T22:00:03.000096
MEAN_MOTION    = 15.91861797
ECCENTRICITY   = .00017352
INCLINATION    = 42.9970
RA_OF_ASC_NODE = 210.1153
ARG_OF_PERICENTER = 269.0514
MEAN_ANOMALY   = 324.5054

EPHEMERIS_TYPE = 0
CLASSIFICATION_TYPE = U
NORAD_CAT_ID   = 66563
ELEMENT_SET_NO = 999
REV_AT_EPOCH   = 228
BSTAR          = -.42213401E-2
MEAN_MOTION_DOT = -.143784E-1
MEAN_MOTION_DDOT = .58636143E-3

CCSDS_OMM_VERS = 2.0
CREATION_DATE  = 
ORIGINATOR     = 

OBJECT_NAME    = STARLINK-35358
OBJECT_ID      = 2025-268H
CENTER_NAME    = EARTH
REF_FRAME      = TEME
TIME_SYSTEM    = UTC
MEAN_ELEMENT_THEORY = SGP/SGP4

EPOCH          = 2025-11-27T22:00:03.000096
MEAN_MOTION    = 15.91929624
ECCENTRICITY   = .0001794
INCLINATION    = 42.9970
RA_OF_ASC_NODE = 210.1116
ARG_OF_PERICENTER = 272.9171
MEAN_ANOMALY   = 322.1545

EPHEMERIS_TYPE = 0
CLASSIFICATION_TYPE = U
NORAD_CAT_ID   = 66564
ELEMENT_SET_NO = 999
REV_AT_EPOCH   = 223
BSTAR          = -.4245833E-2
MEAN_MOTION_DOT = -.1451147E-1
MEAN_MOTION_DDOT = .59674186E-3

CCSDS_OMM_VERS = 2.0
CREATION_DATE  = 
ORIGINATOR     = 

OBJECT_NAME    = STARLINK-35893
OBJECT_ID      = 2025-268J
CENTER_NAME    = EARTH
REF_FRAME      = TEME
TIME_SYSTEM    = UTC
MEAN_ELEMENT_THEORY = SGP/SGP4

EPOCH          = 2025-11-27T22:00:03.000096
MEAN_MOTION    = 15.91994867
ECCENTRICITY   = .00018062
INCLINATION    = 42.9971
RA_OF_ASC_NODE = 210.1077
ARG_OF_PERICENTER = 266.1914
MEAN_ANOMALY   = 330.4483

EPHEMERIS_TYPE = 0
CLASSIFICATION_TYPE = U
NORAD_CAT_ID   = 66565
ELEMENT_SET_NO = 999
REV_AT_EPOCH   = 228
BSTAR          = -.42466574E-2
MEAN_MOTION_DOT = -.1456306E-1
MEAN_MOTION_DDOT = .60101849E-3

CCSDS_OMM_VERS = 2.0
CREATION_DATE  = 
ORIGINATOR     = 

OBJECT_NAME    = STARLINK-35871
OBJECT_ID      = 2025-268K
CENTER_NAME    = EARTH
REF_FRAME      = TEME
TIME_SYSTEM    = UTC
MEAN_ELEMENT_THEORY = SGP/SGP4

EPOCH          = 2025-11-27T22:00:03.000096
MEAN_MOTION    = 15.92069996
ECCENTRICITY   = .00018305
INCLINATION    = 42.9972
RA_OF_ASC_NODE = 210.1028
ARG_OF_PERICENTER = 268.2968
MEAN_ANOMALY   = 330.3018

EPHEMERIS_TYPE = 0
CLASSIFICATION_TYPE = U
NORAD_CAT_ID   = 66566
ELEMENT_SET_NO = 999
REV_AT_EPOCH   = 228
BSTAR          = -.42544981E-2
MEAN_MOTION_DOT = -.146462E-1
MEAN_MOTION_DDOT = .60776856E-3

CCSDS_OMM_VERS = 2.0
CREATION_DATE  = 
ORIGINATOR     = 

OBJECT_NAME    = STARLINK-35825
OBJECT_ID      = 2025-268L
CENTER_NAME    = EARTH
REF_FRAME      = TEME
TIME_SYSTEM    = UTC
MEAN_ELEMENT_THEORY = SGP/SGP4

EPOCH          = 2025-11-27T22:00:03.000096
MEAN_MOTION    = 15.92140819
ECCENTRICITY   = .00018058
INCLINATION    = 42.9973
RA_OF_ASC_NODE = 210.0983
ARG_OF_PERICENTER = 269.2008
MEAN_ANOMALY   = 331.1980

EPHEMERIS_TYPE = 0
CLASSIFICATION_TYPE = U
NORAD_CAT_ID   = 66567
ELEMENT_SET_NO = 999
REV_AT_EPOCH   = 228
BSTAR          = -.42580992E-2
MEAN_MOTION_DOT = -.1471195E-1
MEAN_MOTION_DDOT = .61320325E-3

CCSDS_OMM_VERS = 2.0
CREATION_DATE  = 
ORIGINATOR     = 

OBJECT_NAME    = STARLINK-35803
OBJECT_ID      = 2025-268M
CENTER_NAME    = EARTH
REF_FRAME      = TEME
TIME_SYSTEM    = UTC
MEAN_ELEMENT_THEORY = SGP/SGP4

EPOCH          = 2025-11-27T22:00:03.000096
MEAN_MOTION    = 15.92216759
ECCENTRICITY   = .00017313
INCLINATION    = 42.9972
RA_OF_ASC_NODE = 210.0935
ARG_OF_PERICENTER = 271.3463
MEAN_ANOMALY   = 330.9544

EPHEMERIS_TYPE = 0
CLASSIFICATION_TYPE = U
NORAD_CAT_ID   = 66568
ELEMENT_SET_NO = 999
REV_AT_EPOCH   = 228
BSTAR          = -.42660667E-2
MEAN_MOTION_DOT = -.1479676E-1
MEAN_MOTION_DDOT = .62016121E-3

CCSDS_OMM_VERS = 2.0
CREATION_DATE  = 
ORIGINATOR     = 

OBJECT_NAME    = STARLINK-35835
OBJECT_ID      = 2025-268N
CENTER_NAME    = EARTH
REF_FRAME      = TEME
TIME_SYSTEM    = UTC
MEAN_ELEMENT_THEORY = SGP/SGP4

EPOCH          = 2025-11-27T22:00:03.000096
MEAN_MOTION    = 15.92284212
ECCENTRICITY   = .00017537
INCLINATION    = 42.9972
RA_OF_ASC_NODE = 210.0894
ARG_OF_PERICENTER = 266.5261
MEAN_ANOMALY   = 337.3924

EPHEMERIS_TYPE = 0
CLASSIFICATION_TYPE = U
NORAD_CAT_ID   = 66569
ELEMENT_SET_NO = 999
REV_AT_EPOCH   = 228
BSTAR          = -.42668763E-2
MEAN_MOTION_DOT = -.1485117E-1
MEAN_MOTION_DDOT = .62476205E-3

CCSDS_OMM_VERS = 2.0
CREATION_DATE  = 
ORIGINATOR     = 

OBJECT_NAME    = STARLINK-35834
OBJECT_ID      = 2025-268P
CENTER_NAME    = EARTH
REF_FRAME      = TEME
TIME_SYSTEM    = UTC
MEAN_ELEMENT_THEORY = SGP/SGP4

EPOCH          = 2025-11-27T22:00:03.000096
MEAN_MOTION    = 15.92355815
ECCENTRICITY   = .00018552
INCLINATION    = 42.9974
RA_OF_ASC_NODE = 210.0846
ARG_OF_PERICENTER = 268.9656
MEAN_ANOMALY   = 336.8637

EPHEMERIS_TYPE = 0
CLASSIFICATION_TYPE = U
NORAD_CAT_ID   = 66570
ELEMENT_SET_NO = 999
REV_AT_EPOCH   = 228
BSTAR          = -.42718782E-2
MEAN_MOTION_DOT = -.1492368E-1
MEAN_MOTION_DDOT = .63081028E-3

CCSDS_OMM_VERS = 2.0
CREATION_DATE  = 
ORIGINATOR     = 

OBJECT_NAME    = STARLINK-35836
OBJECT_ID      = 2025-268Q
CENTER_NAME    = EARTH
REF_FRAME      = TEME
TIME_SYSTEM    = UTC
MEAN_ELEMENT_THEORY = SGP/SGP4

EPOCH          = 2025-11-27T22:00:03.000096
MEAN_MOTION    = 15.92437272
ECCENTRICITY   = .00017484
INCLINATION    = 42.9974
RA_OF_ASC_NODE = 210.0798
ARG_OF_PERICENTER = 268.8190
MEAN_ANOMALY   = 338.9132

EPHEMERIS_TYPE = 0
CLASSIFICATION_TYPE = U
NORAD_CAT_ID   = 66571
ELEMENT_SET_NO = 999
REV_AT_EPOCH   = 228
BSTAR          = -.4287707E-2
MEAN_MOTION_DOT = -.1504119E-1
MEAN_MOTION_DDOT = .64046656E-3

CCSDS_OMM_VERS = 2.0
CREATION_DATE  = 
ORIGINATOR     = 

OBJECT_NAME    = STARLINK-35870
OBJECT_ID      = 2025-268R
CENTER_NAME    = EARTH
REF_FRAME      = TEME
TIME_SYSTEM    = UTC
MEAN_ELEMENT_THEORY = SGP/SGP4

EPOCH          = 2025-11-27T22:00:03.000096
MEAN_MOTION    = 15.92512506
ECCENTRICITY   = .0001805
INCLINATION    = 42.9977
RA_OF_ASC_NODE = 210.0751
ARG_OF_PERICENTER = 268.3144
MEAN_ANOMALY   = 341.3866

EPHEMERIS_TYPE = 0
CLASSIFICATION_TYPE = U
NORAD_CAT_ID   = 66572
ELEMENT_SET_NO = 999
REV_AT_EPOCH   = 228
BSTAR          = -.4286384E-2
MEAN_MOTION_DOT = -.1509535E-1
MEAN_MOTION_DDOT = .64517972E-3

CCSDS_OMM_VERS = 2.0
CREATION_DATE  = 
ORIGINATOR     = 

OBJECT_NAME    = STARLINK-35650
OBJECT_ID      = 2025-268S
CENTER_NAME    = EARTH
REF_FRAME      = TEME
TIME_SYSTEM    = UTC
MEAN_ELEMENT_THEORY = SGP/SGP4

EPOCH          = 2025-11-27T22:00:03.000096
MEAN_MOTION    = 15.92588648
ECCENTRICITY   = .00017584
INCLINATION    = 42.9975
RA_OF_ASC_NODE = 210.0705
ARG_OF_PERICENTER = 266.3077
MEAN_ANOMALY   = 345.1741

EPHEMERIS_TYPE = 0
CLASSIFICATION_TYPE = U
NORAD_CAT_ID   = 66573
ELEMENT_SET_NO = 999
REV_AT_EPOCH   = 228
BSTAR          = -.43010803E-2
MEAN_MOTION_DOT = -.1520616E-1
MEAN_MOTION_DDOT = .65438978E-3

CCSDS_OMM_VERS = 2.0
CREATION_DATE  = 
ORIGINATOR     = 

OBJECT_NAME    = STARLINK-35812
OBJECT_ID      = 2025-268T
CENTER_NAME    = EARTH
REF_FRAME      = TEME
TIME_SYSTEM    = UTC
MEAN_ELEMENT_THEORY = SGP/SGP4

EPOCH          = 2025-11-27T22:00:03.000096
MEAN_MOTION    = 15.92650629
ECCENTRICITY   = .0001839
INCLINATION    = 42.9977
RA_OF_ASC_NODE = 210.0666
ARG_OF_PERICENTER = 267.3908
MEAN_ANOMALY   = 345.6057

EPHEMERIS_TYPE = 0
CLASSIFICATION_TYPE = U
NORAD_CAT_ID   = 66574
ELEMENT_SET_NO = 999
REV_AT_EPOCH   = 228
BSTAR          = -.42748949E-2
MEAN_MOTION_DOT = -.151635E-1
MEAN_MOTION_DDOT = .65141492E-3

