STARLINK-35437          
1 66563U 25268G   25331.91670139 -.01437840  58636-3 -42213-2 0  9993
2 66563  42.9970 210.1153 0001735 269.0514 324.5054 15.91861797  2284
STARLINK-35358          
1 66564U 25268H   25331.91670139 -.01451147  59674-3 -42458-2 0  9994
2 66564  42.9970 210.1116 0001794 272.9171 322.1545 15.91929624  2239
STARLINK-35893          
1 66565U 25268J   25331.91670139 -.01456306  60102-3 -42467-2 0  9995
2 66565  42.9971 210.1077 0001806 266.1914 330.4483 15.91994867  2280
STARLINK-35871          
1 66566U 25268K   25331.91670139 -.01464620  60777-3 -42545-2 0  9999
2 66566  42.9972 210.1028 0001830 268.2968 330.3018 15.92069996  2287
STARLINK-35825          
1 66567U 25268L   25331.91670139 -.01471195  61320-3 -42581-2 0  9990
2 66567  42.9973 210.0983 0001805 269.2008 331.1980 15.92140819  2287
STARLINK-35803          
1 66568U 25268M   25331.91670139 -.01479676  62016-3 -42661-2 0  9995
2 66568  42.9972 210.0935 0001731 271.3463 330.9544 15.92216759  2281
STARLINK-35835          
1 66569U 25268N   25331.91670139 -.01485117  62476-3 -42669-2 0  9991
2 66569  42.9972 210.0894 0001753 266.5261 337.3924 15.92284212  2284
STARLINK-35834          
1 66570U 25268P   25331.91670139 -.01492368  63081-3 -42719-2 0  9998
2 66570  42.9974 210.0846 0001855 268.9656 336.8637 15.92355815  2285
STARLINK-35836          
1 66571U 25268Q   25331.91670139 -.01504119  64047-3 -42877-2 0  9995
2 66571  42.9974 210.0798 0001748 268.8190 338.9132 15.92437272  2286
STARLINK-35870          
1 66572U 25268R   25331.91670139 -.01509535  64518-3 -42864-2 0  9992
2 66572  42.9977 210.0751 0001805 268.3144 341.3866 15.92512506  2283
STARLINK-35650          
1 66573U 25268S   25331.91670139 -.01520616  65439-3 -43011-2 0  9994
2 66573  42.9975 210.0705 0001758 266.3077 345.1741 15.92588648  2285
STARLINK-35812          
1 66574U 25268T   25331.91670139 -.01516350  65141-3 -42749-2 0  9992
2 66574  42.9977 210.0666 0001839 267.3908 345.6057 15.92650629  2282
